{"fetched_at":"2026-07-21T17:53:47.972Z","source":"https://celestrak.org/NORAD/elements/gp.php?NAME=SENTINEL&FORMAT=JSON","constellation":"sentinel-2","records":[{"OBJECT_NAME":"SENTINEL-2A","OBJECT_ID":"2015-028A","EPOCH":"2026-07-21T06:29:44.359584","CLASSIFICATION_TYPE":"U","MEAN_MOTION":14.30815111,"ECCENTRICITY":0.000131,"INCLINATION":98.5668,"RA_OF_ASC_NODE":276.6364,"ARG_OF_PERICENTER":98.6114,"MEAN_ANOMALY":261.5218,"EPHEMERIS_TYPE":0,"NORAD_CAT_ID":40697,"ELEMENT_SET_NO":999,"REV_AT_EPOCH":57860,"BSTAR":-0.000020402729,"MEAN_MOTION_DOT":-9.7e-7,"MEAN_MOTION_DDOT":0},{"OBJECT_NAME":"SENTINEL-2B","OBJECT_ID":"2017-013A","EPOCH":"2026-07-21T08:00:04.915008","CLASSIFICATION_TYPE":"U","MEAN_MOTION":14.30815801,"ECCENTRICITY":0.00012362,"INCLINATION":98.5675,"RA_OF_ASC_NODE":276.6239,"ARG_OF_PERICENTER":95.1345,"MEAN_ANOMALY":264.9979,"EPHEMERIS_TYPE":0,"NORAD_CAT_ID":42063,"ELEMENT_SET_NO":999,"REV_AT_EPOCH":48952,"BSTAR":-0.000021321903,"MEAN_MOTION_DOT":-9.9e-7,"MEAN_MOTION_DDOT":0},{"OBJECT_NAME":"SENTINEL-2C","OBJECT_ID":"2024-157A","EPOCH":"2026-07-21T03:48:21.222144","CLASSIFICATION_TYPE":"U","MEAN_MOTION":14.30816822,"ECCENTRICITY":0.00010205,"INCLINATION":98.5679,"RA_OF_ASC_NODE":276.4578,"ARG_OF_PERICENTER":107.4871,"MEAN_ANOMALY":252.6423,"EPHEMERIS_TYPE":0,"NORAD_CAT_ID":60989,"ELEMENT_SET_NO":999,"REV_AT_EPOCH":9784,"BSTAR":0.000036435377,"MEAN_MOTION_DOT":5.2e-7,"MEAN_MOTION_DDOT":0}]}
